{"fetched_at":"2026-07-08T07:04:23.472Z","source":"https://celestrak.org/NORAD/elements/gp.php?NAME=TIGER&FORMAT=JSON","constellation":"oq-technology","records":[{"OBJECT_NAME":"TIGER-8","OBJECT_ID":"2024-043Y","EPOCH":"2026-07-07T08:42:47.500992","CLASSIFICATION_TYPE":"U","MEAN_MOTION":15.45063731,"ECCENTRICITY":0.00087539,"INCLINATION":97.5568,"RA_OF_ASC_NODE":337.7939,"ARG_OF_PERICENTER":126.4828,"MEAN_ANOMALY":233.7228,"EPHEMERIS_TYPE":0,"NORAD_CAT_ID":59120,"ELEMENT_SET_NO":999,"REV_AT_EPOCH":13090,"BSTAR":0.00015271725,"MEAN_MOTION_DOT":0.0000713,"MEAN_MOTION_DDOT":0},{"OBJECT_NAME":"TIGER-7","OBJECT_ID":"2024-043AV","EPOCH":"2026-07-07T10:02:23.457984","CLASSIFICATION_TYPE":"U","MEAN_MOTION":15.49220685,"ECCENTRICITY":0.00068566,"INCLINATION":97.5508,"RA_OF_ASC_NODE":340.3139,"ARG_OF_PERICENTER":98.3768,"MEAN_ANOMALY":261.826,"EPHEMERIS_TYPE":0,"NORAD_CAT_ID":59141,"ELEMENT_SET_NO":999,"REV_AT_EPOCH":13110,"BSTAR":0.00017691883,"MEAN_MOTION_DOT":0.00009556,"MEAN_MOTION_DDOT":0}]}
