TIGER-8                 
1 59120U 24043Y   26188.36304978  .00007130  00000+0  15272-3 0  9995
2 59120  97.5568 337.7939 0008753 126.4828 233.7228 15.45063731130909
TIGER-7                 
1 59141U 24043AV  26188.41832706  .00009556  00000+0  17692-3 0  9991
2 59141  97.5508 340.3139 0006856  98.3768 261.8260 15.49220685131108
